GLOBALSTAR M023         
1 25621U 99004A   25085.95838510  .00000025  00000+0  71382-3 0  9997
2 25621  52.0111 303.8336 0009142 309.1292 189.1606 12.62504061205438
GLOBALSTAR M040         
1 25622U 99004B   25085.98093068 -.00000028  00000+0  42289-3 0  9990
2 25622  51.9921 307.7965 0000738 147.4460 351.7653 12.62005778204876
GLOBALSTAR M022         
1 25649U 99012A   25085.89157186 -.00000085  00000+0  26572-4 0  9991
2 25649  52.0023 154.6192 0002207  20.9039 149.8508 12.02497839166476
GLOBALSTAR M041         
1 25650U 99012B   25085.86052986 -.00000055  00000+0  38492-3 0  9992
2 25650  52.0045  33.6441 0001655 140.1176 219.9782 11.96669434168422
GLOBALSTAR M046         
1 25651U 99012C   25085.80512911  .00000060  00000+0  16446-2 0  9995
2 25651  52.0031 107.9932 0002326  91.7990  79.1723 12.09407493173695
GLOBALSTAR M037         
1 25652U 99012D   25085.90528529 -.00000048  00000+0  30927-3 0  9997
2 25652  51.9999  74.6392 0002075  12.0166 359.1229 12.62440572200887
